STARLINK-35437          
1 66563U 25268G   25337.50003471 -.01847234  00000+0 -13757-1 0  9993
2 66563  42.9989 175.8311 0001753 266.9049 149.1826 15.75053842  3180
STARLINK-35358          
1 66564U 25268H   25337.50003471 -.01867839  00000+0 -13927-1 0  9996
2 66564  42.9989 175.8265 0001764 259.8881 158.1208 15.75064183  3135
STARLINK-35893          
1 66565U 25268J   25337.50003471 -.01888811  00000+0 -14095-1 0  9997
2 66565  42.9989 175.8214 0001900 272.5750 147.3418 15.75083026  3184
STARLINK-35871          
1 66566U 25268K   25337.50003471 -.01870486  00000+0 -13947-1 0  9992
2 66566  42.9990 175.8167 0001932 269.4746 152.3672 15.75066235  3180
STARLINK-35825          
1 66567U 25268L   25337.50003471 -.01897887  00000+0 -14171-1 0  9997
2 66567  42.9991 175.8119 0001578 263.6690 160.0789 15.75090051  3187
STARLINK-35803          
1 66568U 25268M   25337.50003471 -.01880951  00000+0 -14035-1 0  9991
2 66568  42.9989 175.8065 0001349 265.1759 160.4961 15.75076701  3186
STARLINK-35835          
1 66569U 25268N   25337.50003471 -.01870601  00000+0 -13949-1 0  9996
2 66569  42.9991 175.8020 0001745 259.1999 168.3916 15.75066895  3180
STARLINK-35834          
1 66570U 25268P   25337.50003471 -.01862768  00000+0 -13885-1 0  9992
2 66570  42.9989 175.7971 0001955 274.2541 155.2601 15.75059067  3186
STARLINK-35836          
1 66571U 25268Q   25337.50003471 -.01889914  00000+0 -14108-1 0  9994
2 66571  42.9989 175.7925 0001507 271.3235 160.0993 15.75082198  3186
STARLINK-35870          
1 66572U 25268R   25337.50003471 -.01924524  00000+0 -14384-1 0  9998
2 66572  42.9990 175.7887 0002162 263.8920 169.4283 15.75109554  3182
STARLINK-35650          
1 66573U 25268S   25337.50003471 -.02013628  00000+0 -14757-1 0  9998
2 66573  42.9992 175.7830 0002403 266.9748 168.2108 15.75165361  3184
STARLINK-35812          
1 66574U 25268T   25337.50003471 -.01902068  00000+0 -14208-1 0  9994
2 66574  42.9988 175.7773 0001520 265.9847 171.1899 15.75088817  3184
