CCSDS_OMM_VERS = 2.0
CREATION_DATE  = 
ORIGINATOR     = 

OBJECT_NAME    = STARLINK-35437
OBJECT_ID      = 2025-268G
CENTER_NAME    = EARTH
REF_FRAME      = TEME
TIME_SYSTEM    = UTC
MEAN_ELEMENT_THEORY = SGP/SGP4

EPOCH          = 2025-12-03T12:00:02.998944
MEAN_MOTION    = 15.75053842
ECCENTRICITY   = .0001753
INCLINATION    = 42.9989
RA_OF_ASC_NODE = 175.8311
ARG_OF_PERICENTER = 266.9049
MEAN_ANOMALY   = 149.1826

EPHEMERIS_TYPE = 0
CLASSIFICATION_TYPE = U
NORAD_CAT_ID   = 66563
ELEMENT_SET_NO = 999
REV_AT_EPOCH   = 318
BSTAR          = -.13757E-1
MEAN_MOTION_DOT = -.1847234E-1
MEAN_MOTION_DDOT = 0

CCSDS_OMM_VERS = 2.0
CREATION_DATE  = 
ORIGINATOR     = 

OBJECT_NAME    = STARLINK-35358
OBJECT_ID      = 2025-268H
CENTER_NAME    = EARTH
REF_FRAME      = TEME
TIME_SYSTEM    = UTC
MEAN_ELEMENT_THEORY = SGP/SGP4

EPOCH          = 2025-12-03T12:00:02.998944
MEAN_MOTION    = 15.75064183
ECCENTRICITY   = .0001764
INCLINATION    = 42.9989
RA_OF_ASC_NODE = 175.8265
ARG_OF_PERICENTER = 259.8881
MEAN_ANOMALY   = 158.1208

EPHEMERIS_TYPE = 0
CLASSIFICATION_TYPE = U
NORAD_CAT_ID   = 66564
ELEMENT_SET_NO = 999
REV_AT_EPOCH   = 313
BSTAR          = -.13927E-1
MEAN_MOTION_DOT = -.1867839E-1
MEAN_MOTION_DDOT = 0

CCSDS_OMM_VERS = 2.0
CREATION_DATE  = 
ORIGINATOR     = 

OBJECT_NAME    = STARLINK-35893
OBJECT_ID      = 2025-268J
CENTER_NAME    = EARTH
REF_FRAME      = TEME
TIME_SYSTEM    = UTC
MEAN_ELEMENT_THEORY = SGP/SGP4

EPOCH          = 2025-12-03T12:00:02.998944
MEAN_MOTION    = 15.75083026
ECCENTRICITY   = .00019
INCLINATION    = 42.9989
RA_OF_ASC_NODE = 175.8214
ARG_OF_PERICENTER = 272.5750
MEAN_ANOMALY   = 147.3418

EPHEMERIS_TYPE = 0
CLASSIFICATION_TYPE = U
NORAD_CAT_ID   = 66565
ELEMENT_SET_NO = 999
REV_AT_EPOCH   = 318
BSTAR          = -.14095E-1
MEAN_MOTION_DOT = -.1888811E-1
MEAN_MOTION_DDOT = 0

CCSDS_OMM_VERS = 2.0
CREATION_DATE  = 
ORIGINATOR     = 

OBJECT_NAME    = STARLINK-35871
OBJECT_ID      = 2025-268K
CENTER_NAME    = EARTH
REF_FRAME      = TEME
TIME_SYSTEM    = UTC
MEAN_ELEMENT_THEORY = SGP/SGP4

EPOCH          = 2025-12-03T12:00:02.998944
MEAN_MOTION    = 15.75066235
ECCENTRICITY   = .0001932
INCLINATION    = 42.9990
RA_OF_ASC_NODE = 175.8167
ARG_OF_PERICENTER = 269.4746
MEAN_ANOMALY   = 152.3672

EPHEMERIS_TYPE = 0
CLASSIFICATION_TYPE = U
NORAD_CAT_ID   = 66566
ELEMENT_SET_NO = 999
REV_AT_EPOCH   = 318
BSTAR          = -.13947E-1
MEAN_MOTION_DOT = -.1870486E-1
MEAN_MOTION_DDOT = 0

CCSDS_OMM_VERS = 2.0
CREATION_DATE  = 
ORIGINATOR     = 

OBJECT_NAME    = STARLINK-35825
OBJECT_ID      = 2025-268L
CENTER_NAME    = EARTH
REF_FRAME      = TEME
TIME_SYSTEM    = UTC
MEAN_ELEMENT_THEORY = SGP/SGP4

EPOCH          = 2025-12-03T12:00:02.998944
MEAN_MOTION    = 15.75090051
ECCENTRICITY   = .0001578
INCLINATION    = 42.9991
RA_OF_ASC_NODE = 175.8119
ARG_OF_PERICENTER = 263.6690
MEAN_ANOMALY   = 160.0789

EPHEMERIS_TYPE = 0
CLASSIFICATION_TYPE = U
NORAD_CAT_ID   = 66567
ELEMENT_SET_NO = 999
REV_AT_EPOCH   = 318
BSTAR          = -.14171E-1
MEAN_MOTION_DOT = -.1897887E-1
MEAN_MOTION_DDOT = 0

CCSDS_OMM_VERS = 2.0
CREATION_DATE  = 
ORIGINATOR     = 

OBJECT_NAME    = STARLINK-35803
OBJECT_ID      = 2025-268M
CENTER_NAME    = EARTH
REF_FRAME      = TEME
TIME_SYSTEM    = UTC
MEAN_ELEMENT_THEORY = SGP/SGP4

EPOCH          = 2025-12-03T12:00:02.998944
MEAN_MOTION    = 15.75076701
ECCENTRICITY   = .0001349
INCLINATION    = 42.9989
RA_OF_ASC_NODE = 175.8065
ARG_OF_PERICENTER = 265.1759
MEAN_ANOMALY   = 160.4961

EPHEMERIS_TYPE = 0
CLASSIFICATION_TYPE = U
NORAD_CAT_ID   = 66568
ELEMENT_SET_NO = 999
REV_AT_EPOCH   = 318
BSTAR          = -.14035E-1
MEAN_MOTION_DOT = -.1880951E-1
MEAN_MOTION_DDOT = 0

CCSDS_OMM_VERS = 2.0
CREATION_DATE  = 
ORIGINATOR     = 

OBJECT_NAME    = STARLINK-35835
OBJECT_ID      = 2025-268N
CENTER_NAME    = EARTH
REF_FRAME      = TEME
TIME_SYSTEM    = UTC
MEAN_ELEMENT_THEORY = SGP/SGP4

EPOCH          = 2025-12-03T12:00:02.998944
MEAN_MOTION    = 15.75066895
ECCENTRICITY   = .0001745
INCLINATION    = 42.9991
RA_OF_ASC_NODE = 175.8020
ARG_OF_PERICENTER = 259.1999
MEAN_ANOMALY   = 168.3916

EPHEMERIS_TYPE = 0
CLASSIFICATION_TYPE = U
NORAD_CAT_ID   = 66569
ELEMENT_SET_NO = 999
REV_AT_EPOCH   = 318
BSTAR          = -.13949E-1
MEAN_MOTION_DOT = -.1870601E-1
MEAN_MOTION_DDOT = 0

CCSDS_OMM_VERS = 2.0
CREATION_DATE  = 
ORIGINATOR     = 

OBJECT_NAME    = STARLINK-35834
OBJECT_ID      = 2025-268P
CENTER_NAME    = EARTH
REF_FRAME      = TEME
TIME_SYSTEM    = UTC
MEAN_ELEMENT_THEORY = SGP/SGP4

EPOCH          = 2025-12-03T12:00:02.998944
MEAN_MOTION    = 15.75059067
ECCENTRICITY   = .0001955
INCLINATION    = 42.9989
RA_OF_ASC_NODE = 175.7971
ARG_OF_PERICENTER = 274.2541
MEAN_ANOMALY   = 155.2601

EPHEMERIS_TYPE = 0
CLASSIFICATION_TYPE = U
NORAD_CAT_ID   = 66570
ELEMENT_SET_NO = 999
REV_AT_EPOCH   = 318
BSTAR          = -.13885E-1
MEAN_MOTION_DOT = -.1862768E-1
MEAN_MOTION_DDOT = 0

CCSDS_OMM_VERS = 2.0
CREATION_DATE  = 
ORIGINATOR     = 

OBJECT_NAME    = STARLINK-35836
OBJECT_ID      = 2025-268Q
CENTER_NAME    = EARTH
REF_FRAME      = TEME
TIME_SYSTEM    = UTC
MEAN_ELEMENT_THEORY = SGP/SGP4

EPOCH          = 2025-12-03T12:00:02.998944
MEAN_MOTION    = 15.75082198
ECCENTRICITY   = .0001507
INCLINATION    = 42.9989
RA_OF_ASC_NODE = 175.7925
ARG_OF_PERICENTER = 271.3235
MEAN_ANOMALY   = 160.0993

EPHEMERIS_TYPE = 0
CLASSIFICATION_TYPE = U
NORAD_CAT_ID   = 66571
ELEMENT_SET_NO = 999
REV_AT_EPOCH   = 318
BSTAR          = -.14108E-1
MEAN_MOTION_DOT = -.1889914E-1
MEAN_MOTION_DDOT = 0

CCSDS_OMM_VERS = 2.0
CREATION_DATE  = 
ORIGINATOR     = 

OBJECT_NAME    = STARLINK-35870
OBJECT_ID      = 2025-268R
CENTER_NAME    = EARTH
REF_FRAME      = TEME
TIME_SYSTEM    = UTC
MEAN_ELEMENT_THEORY = SGP/SGP4

EPOCH          = 2025-12-03T12:00:02.998944
MEAN_MOTION    = 15.75109554
ECCENTRICITY   = .0002162
INCLINATION    = 42.9990
RA_OF_ASC_NODE = 175.7887
ARG_OF_PERICENTER = 263.8920
MEAN_ANOMALY   = 169.4283

EPHEMERIS_TYPE = 0
CLASSIFICATION_TYPE = U
NORAD_CAT_ID   = 66572
ELEMENT_SET_NO = 999
REV_AT_EPOCH   = 318
BSTAR          = -.14384E-1
MEAN_MOTION_DOT = -.1924524E-1
MEAN_MOTION_DDOT = 0

CCSDS_OMM_VERS = 2.0
CREATION_DATE  = 
ORIGINATOR     = 

OBJECT_NAME    = STARLINK-35650
OBJECT_ID      = 2025-268S
CENTER_NAME    = EARTH
REF_FRAME      = TEME
TIME_SYSTEM    = UTC
MEAN_ELEMENT_THEORY = SGP/SGP4

EPOCH          = 2025-12-03T12:00:02.998944
MEAN_MOTION    = 15.75165361
ECCENTRICITY   = .0002403
INCLINATION    = 42.9992
RA_OF_ASC_NODE = 175.7830
ARG_OF_PERICENTER = 266.9748
MEAN_ANOMALY   = 168.2108

EPHEMERIS_TYPE = 0
CLASSIFICATION_TYPE = U
NORAD_CAT_ID   = 66573
ELEMENT_SET_NO = 999
REV_AT_EPOCH   = 318
BSTAR          = -.14757E-1
MEAN_MOTION_DOT = -.2013628E-1
MEAN_MOTION_DDOT = 0

CCSDS_OMM_VERS = 2.0
CREATION_DATE  = 
ORIGINATOR     = 

OBJECT_NAME    = STARLINK-35812
OBJECT_ID      = 2025-268T
CENTER_NAME    = EARTH
REF_FRAME      = TEME
TIME_SYSTEM    = UTC
MEAN_ELEMENT_THEORY = SGP/SGP4

EPOCH          = 2025-12-03T12:00:02.998944
MEAN_MOTION    = 15.75088817
ECCENTRICITY   = .000152
INCLINATION    = 42.9988
RA_OF_ASC_NODE = 175.7773
ARG_OF_PERICENTER = 265.9847
MEAN_ANOMALY   = 171.1899

EPHEMERIS_TYPE = 0
CLASSIFICATION_TYPE = U
NORAD_CAT_ID   = 66574
ELEMENT_SET_NO = 999
REV_AT_EPOCH   = 318
BSTAR          = -.14208E-1
MEAN_MOTION_DOT = -.1902068E-1
MEAN_MOTION_DDOT = 0

